{"fetched_at":"2026-03-30T06:02:59Z","count":15439,"tles":[{"name":"STARLINK-11651 [DTC]","line1":"1 63664U 25085A   26087.62379708  .00308763  00000+0  23086-2 0  9997","line2":"2 63664  43.0014 163.9356 0003752 280.4439  79.6006 15.70970016 53236","category":"Starlink"}]}