{
  "norad_id": 63664,
  "name": "STARLINK-11651 [DTC]",
  "history": [
    {
      "epoch": "2026-03-28T14:58:16.067712Z",
      "apogee_km": 358.65017166811595,
      "perigee_km": 353.59678260607234,
      "latitude_deg": 1.6775937908915685e-05,
      "longitude_deg": 113.32709081116506,
      "height_km": 355.43966690512383,
      "semi_major_axis_km": 6734.260477137094,
      "eccentricity": 0.0003752,
      "inclination_deg": 43.0014,
      "raan_deg": 163.9356,
      "arg_perigee_deg": 280.4439,
      "mean_anomaly_deg": 79.6006,
      "mean_motion_rev_day": 15.70970016
    }
  ]
}